H1 CPF 01  gfz 2021 07 06 00  6871 tandemx   
H2 1003001  6202 36605    2021 07 06 00 59 42 2021 07 11 00 00 42   120 1 1  0 0 0
H9
10 0 59404  42462.000000  0      84305.831  -6488857.323  -2322077.305
10 0 59404  42582.000000  0     -99091.665  -6130229.041  -3150440.353
10 0 59404  42702.000000  0    -273524.041  -5661665.926  -3923525.550
10 0 59404  42822.000000  0    -434107.445  -5091636.289  -4627840.976
10 0 59404  42942.000000  0    -576369.610  -4430438.837  -5251129.453
10 0 59404  43062.000000  0    -696356.820  -3690005.386  -5782574.727
10 0 59404  43182.000000  0    -790727.076  -2883676.499  -6212979.620
10 0 59404  43302.000000  0    -856828.028  -2025955.327  -6534914.172
10 0 59404  43422.000000  0    -892758.465  -1132244.852  -6742832.233
10 0 59404  43542.000000  0    -897412.760   -218573.629  -6833157.403
10 0 59404  43662.000000  0    -870506.962    698687.145  -6804337.450
10 0 59404  43782.000000  0    -812586.501   1603109.363  -6656867.213
10 0 59404  43902.000000  0    -725015.977   2478494.548  -6393281.040
10 0 59404  44022.000000  0    -609950.681   3309157.211  -6018115.008
10 0 59404  44142.000000  0    -470289.936   4080203.190  -5537838.078
10 0 59404  44262.000000  0    -309612.841   4777796.434  -4960750.856
10 0 59404  44382.000000  0    -132098.068   5389411.281  -4296854.059
10 0 59404  44502.000000  0      57571.415   5904065.486  -3557685.445
10 0 59404  44622.000000  0     254317.230   6312527.695  -2756127.315
10 0 59404  44742.000000  0     452785.778   6607495.331  -1906187.536
10 0 59404  44862.000000  0     647477.237   6783738.380  -1022756.238
10 0 59404  44982.000000  0     832880.438   6838203.865   -121342.379
10 0 59404  45102.000000  0    1003610.278   6770077.759    782204.451
10 0 59404  45222.000000  0    1154543.859   6580801.214   1671980.793
10 0 59404  45342.000000  0    1280950.673   6274041.871   2532317.411
10 0 59404  45462.000000  0    1378614.608   5855621.438   3348062.945
10 0 59404  45582.000000  0    1443945.102   5333400.529   4104858.428
10 0 59404  45702.000000  0    1474075.094   4717122.814   4789394.735
10 0 59404  45822.000000  0    1466941.292   4018222.308   5389650.889
10 0 59404  45942.000000  0    1421345.228   3249599.371   5895100.713
10 0 59404  46062.000000  0    1336996.377   2425375.977   6296892.622
10 0 59404  46182.000000  0    1214534.346   1560630.024   6587999.839
10 0 59404  46302.000000  0    1055530.884    671114.813   6763337.240
10 0 59404  46422.000000  0     862471.344   -227029.168   6819843.500
10 0 59404  46542.000000  0     638716.037  -1117565.685   6756532.246
10 0 59404  46662.000000  0     388441.555  -1984456.549   6574509.073
10 0 59404  46782.000000  0     116562.812  -2812150.386   6276953.595
10 0 59404  46902.000000  0    -171362.472  -3585863.419   5869066.280
10 0 59404  47022.000000  0    -469244.336  -4291844.172   5357980.424
10 0 59404  47142.000000  0    -770584.982  -4917620.255   4752644.808
10 0 59404  47262.000000  0   -1068616.355  -5452227.028   4063675.521
10 0 59404  47382.000000  0   -1356447.973  -5886410.404   3303173.096
10 0 59404  47502.000000  0   -1627220.611  -6212796.143   2484510.493
10 0 59404  47622.000000  0   -1874263.183  -6426024.272   1622097.295
10 0 59404  47742.000000  0   -2091249.512  -6522844.644    731121.269
10 0 59404  47862.000000  0   -2272348.679  -6502169.649   -172726.707
10 0 59404  47982.000000  0   -2412366.293  -6365083.592  -1073537.583
10 0 59404  48102.000000  0   -2506873.371  -6114808.212  -1955472.816
10 0 59404  48222.000000  0   -2552319.809  -5756625.593  -2803050.620
10 0 59404  48342.000000  0   -2546129.136  -5297760.162  -3601423.943
10 0 59404  48462.000000  0   -2486772.005  -4747222.773  -4336643.082
10 0 59404  48582.000000  0   -2373817.184  -4115622.911  -4995897.073
10 0 59404  48702.000000  0   -2207959.779  -3414954.884  -5567730.830
10 0 59404  48822.000000  0   -1991026.675  -2658362.945  -6042235.857
10 0 59404  48942.000000  0   -1725958.610  -1859889.628  -6411212.109
10 0 59404  49062.000000  0   -1416769.380  -1034212.892  -6668298.016
10 0 59404  49182.000000  0   -1068484.705   -196377.940  -6809068.727
10 0 59404  49302.000000  0    -687061.341    638472.072  -6831103.366
10 0 59404  49422.000000  0    -279286.463   1455362.662  -6734021.966
10 0 59404  49542.000000  0     147339.598   2239749.408  -6519491.027
10 0 59404  49662.000000  0     584736.704   2977770.963  -6191199.951
10 0 59404  49782.000000  0    1024394.738   3656491.617  -5754805.202
10 0 59404  49902.000000  0    1457534.756   4264127.179  -5217841.543
10 0 59404  50022.000000  0    1875280.311   4790252.276  -4589604.049
10 0 59404  50142.000000  0    2268836.578   5225986.380  -3880998.284
10 0 59404  50262.000000  0    2629672.865   5564152.232  -3104359.753
10 0 59404  50382.000000  0    2949705.408   5799404.503  -2273246.392
10 0 59404  50502.000000  0    3221476.725   5928324.922  -1402205.018
10 0 59404  50622.000000  0    3438326.123   5949480.414   -506515.516
10 0 59404  50742.000000  0    3594546.452   5863441.582    398082.130
10 0 59404  50862.000000  0    3685523.199   5672760.592   1295671.385
10 0 59404  50982.000000  0    3707853.255   5381909.157   2170446.795
10 0 59404  51102.000000  0    3659439.211   4997179.336   3007000.747
10 0 59404  51222.000000  0    3539556.450   4526546.370   3790604.155
10 0 59404  51342.000000  0    3348892.381   3979498.113   4507469.831
10 0 59404  51462.000000  0    3089556.165   3366839.283   5145000.072
10 0 59404  51582.000000  0    2765055.553   2700469.770   5692007.821
10 0 59404  51702.000000  0    2380249.235   1993147.268   6138907.796
10 0 59404  51822.000000  0    1941272.657   1258238.585   6477880.117
10 0 59404  51942.000000  0    1455436.842    509463.181   6703000.902
10 0 59404  52062.000000  0     931104.106   -239363.040   6810338.978
10 0 59404  52182.000000  0     377543.371   -974581.657   6798021.553
10 0 59404  52302.000000  0    -195234.065  -1682941.352   6666265.176
10 0 59404  52422.000000  0    -776655.754  -2351836.576   6417371.608
10 0 59404  52542.000000  0   -1355782.635  -2969532.134   6055688.678
10 0 59404  52662.000000  0   -1921512.095  -3525369.412   5587538.259
10 0 59404  52782.000000  0   -2462789.981  -4009953.300   5021113.637
10 0 59404  52902.000000  0   -2968829.176  -4415316.849   4366343.548
10 0 59404  53022.000000  0   -3429328.338  -4735058.564   3634722.273
10 0 59404  53142.000000  0   -3834684.287  -4964449.160   2839109.346
10 0 59404  53262.000000  0   -4176193.682  -5100505.969   1993503.480
10 0 59404  53382.000000  0   -4446241.365  -5142033.228   1112793.360
10 0 59404  53502.000000  0   -4638469.393  -5089625.718    212489.590
10 0 59404  53622.000000  0   -4747922.430  -4945636.194   -691556.035
10 0 59404  53742.000000  0   -4771165.731  -4714107.161  -1583438.972
10 0 59404  53862.000000  0   -4706371.488  -4400667.737  -2447491.272
10 0 59404  53982.000000  0   -4553371.679  -4012398.595  -3268563.702
10 0 59404  54102.000000  0   -4313677.150  -3557670.310  -4032294.421
10 0 59404  54222.000000  0   -3990463.382  -3045959.811  -4725359.823
10 0 59404  54342.000000  0   -3588523.692  -2487648.876  -5335703.237
10 0 59404  54462.000000  0   -3114191.368  -1893810.238  -5852737.134
10 0 59404  54582.000000  0   -2575233.883  -1275986.302  -6267517.050
10 0 59404  54702.000000  0   -1980720.649   -645964.594  -6572885.629
10 0 59404  54822.000000  0   -1340866.987    -15554.807  -6763584.120
10 0 59404  54942.000000  0    -666859.489    603627.773  -6836331.782
10 0 59404  55062.000000  0      29335.712   1200370.576  -6789876.466
10 0 59404  55182.000000  0     735179.660   1764061.227  -6625013.574
10 0 59404  55302.000000  0    1437780.605   2284871.822  -6344576.453
10 0 59404  55422.000000  0    2124125.012   2753928.156  -5953392.918
10 0 59404  55542.000000  0    2781314.600   3163460.790  -5458210.665
10 0 59404  55662.000000  0    3396805.806   3506934.491  -4867591.052
10 0 59404  55782.000000  0    3958649.303   3779156.647  -4191773.539
10 0 59404  55902.000000  0    4455725.354   3976360.798  -3442508.618
10 0 59404  56022.000000  0    4877969.478   4096262.887  -2632861.048
10 0 59404  56142.000000  0    5216581.675   4138088.442  -1776986.261
10 0 59404  56262.000000  0    5464215.808   4102570.192   -889883.798
10 0 59404  56382.000000  0    5615142.941   3991914.872     12868.541
10 0 59404  56502.000000  0    5665384.841   3809740.506    915393.403
10 0 59404  56622.000000  0    5612814.182   3560984.159   1801801.199
10 0 59404  56742.000000  0    5457216.924   3251782.109   2656478.814
10 0 59404  56862.000000  0    5200315.624   2889327.094   3464373.480
10 0 59404  56982.000000  0    4845753.016   2481704.800   4211265.471
10 0 59404  57102.000000  0    4399035.610   2037713.580   4884021.641
10 0 59404  57222.000000  0    3867443.816   1566675.267   5470826.759
10 0 59404  57342.000000  0    3259904.640   1078238.705   5961391.567
10 0 59404  57462.000000  0    2586832.788    582180.251   6347127.269
10 0 59404  57582.000000  0    1859946.699     88208.714   6621288.161
10 0 59404  57702.000000  0    1092061.918   -394223.189   6779084.747
10 0 59404  57822.000000  0     296862.438   -856099.408   6817763.750
10 0 59404  57942.000000  0    -511344.333  -1289008.549   6736652.081
10 0 59404  58062.000000  0   -1317884.652  -1685296.821   6537167.137
10 0 59404  58182.000000  0   -2107983.614  -2038203.282   6222792.023
10 0 59404  58302.000000  0   -2867033.418  -2341974.512   5799018.979
10 0 59404  58422.000000  0   -3580864.982  -2591960.315   5273262.249
10 0 59404  58542.000000  0   -4236017.935  -2784687.397   4654733.727
10 0 59404  58662.000000  0   -4819999.580  -2917908.113   3954285.463
10 0 59404  58782.000000  0   -5321529.269  -2990623.333   3184222.439
10 0 59404  58902.000000  0   -5730763.564  -3003079.845   2358088.625
99
